{
  "norad_id": 68643,
  "name": "QIANFAN GROUP 7 OBJECT H",
  "history": [
    {
      "epoch": "2026-04-16T14:05:25.186848Z",
      "apogee_km": 824.601771592862,
      "perigee_km": 803.5587822839952,
      "latitude_deg": -3.106273924178188e-05,
      "longitude_deg": -88.41661401300628,
      "height_km": 827.634048635227,
      "semi_major_axis_km": 7192.217276938429,
      "eccentricity": 0.0014629,
      "inclination_deg": 88.9909,
      "raan_deg": 327.671,
      "arg_perigee_deg": 184.2778,
      "mean_anomaly_deg": 175.8291,
      "mean_motion_rev_day": 14.23339702
    }
  ]
}