QIANFAN GROUP 7 OBJECT H
1 68643U 26075H   26106.58709707 -.00000484  00000+0 -22004-3 0  9993
2 68643  88.9909 327.6710 0014629 184.2778 175.8291 14.23339702  1285
